{
    "links": {
        "self": "http://www.neowsapp.com/rest/v1/neo/54017666?api_key=iIulBulltgU6a56xZRHN4H3l9WmuAYTsLGpBGhQ2"
    },
    "id": "54017666",
    "neo_reference_id": "54017666",
    "name": "(2020 MU3)",
    "designation": "2020 MU3",
    "nasa_jpl_url": "http://ssd.jpl.nasa.gov/sbdb.cgi?sstr=54017666",
    "absolute_magnitude_h": 24.495,
    "estimated_diameter": {
        "kilometers": {
            "estimated_diameter_min": 0.0335393759,
            "estimated_diameter_max": 0.0749963244
        },
        "meters": {
            "estimated_diameter_min": 33.5393758694,
            "estimated_diameter_max": 74.9963243669
        },
        "miles": {
            "estimated_diameter_min": 0.0208403955,
            "estimated_diameter_max": 0.0466005411
        },
        "feet": {
            "estimated_diameter_min": 110.0373259274,
            "estimated_diameter_max": 246.050940836
        }
    },
    "is_potentially_hazardous_asteroid": false,
    "close_approach_data": [
        {
            "close_approach_date": "2010-07-06",
            "close_approach_date_full": "2010-Jul-06 21:19",
            "epoch_date_close_approach": 1278451140000,
            "relative_velocity": {
                "kilometers_per_second": "10.7296471666",
                "kilometers_per_hour": "38626.7297998914",
                "miles_per_hour": "24001.1477470492"
            },
            "miss_distance": {
                "astronomical": "0.23073031",
                "lunar": "89.75409059",
                "kilometers": "34516762.9204397",
                "miles": "21447721.93467986"
            },
            "orbiting_body": "Earth"
        },
        {
            "close_approach_date": "2015-07-06",
            "close_approach_date_full": "2015-Jul-06 01:15",
            "epoch_date_close_approach": 1436145300000,
            "relative_velocity": {
                "kilometers_per_second": "9.447959788",
                "kilometers_per_hour": "34012.6552367123",
                "miles_per_hour": "21134.1412497227"
            },
            "miss_distance": {
                "astronomical": "0.1064130663",
                "lunar": "41.3946827907",
                "kilometers": "15919168.058648781",
                "miles": "9891712.3468479378"
            },
            "orbiting_body": "Earth"
        },
        {
            "close_approach_date": "2020-07-03",
            "close_approach_date_full": "2020-Jul-03 22:08",
            "epoch_date_close_approach": 1593814080000,
            "relative_velocity": {
                "kilometers_per_second": "9.3109731993",
                "kilometers_per_hour": "33519.5035175646",
                "miles_per_hour": "20827.7159495667"
            },
            "miss_distance": {
                "astronomical": "0.0590507412",
                "lunar": "22.9707383268",
                "kilometers": "8833865.105441244",
                "miles": "5489109.2431434072"
            },
            "orbiting_body": "Earth"
        },
        {
            "close_approach_date": "2025-07-02",
            "close_approach_date_full": "2025-Jul-02 10:21",
            "epoch_date_close_approach": 1751451660000,
            "relative_velocity": {
                "kilometers_per_second": "10.3354123635",
                "kilometers_per_hour": "37207.4845086677",
                "miles_per_hour": "23119.2839159552"
            },
            "miss_distance": {
                "astronomical": "0.1649590774",
                "lunar": "64.1690811086",
                "kilometers": "24677526.616205138",
                "miles": "15333903.9967333844"
            },
            "orbiting_body": "Earth"
        },
        {
            "close_approach_date": "2030-06-30",
            "close_approach_date_full": "2030-Jun-30 16:16",
            "epoch_date_close_approach": 1909066560000,
            "relative_velocity": {
                "kilometers_per_second": "12.4795151082",
                "kilometers_per_hour": "44926.2543893735",
                "miles_per_hour": "27915.4273454415"
            },
            "miss_distance": {
                "astronomical": "0.3006948176",
                "lunar": "116.9702840464",
                "kilometers": "44983304.232998512",
                "miles": "27951329.1300309856"
            },
            "orbiting_body": "Earth"
        }
    ],
    "orbital_data": {
        "orbit_id": "4",
        "orbit_determination_date": "2020-08-31 09:29:34",
        "first_observation_date": "2020-06-28",
        "last_observation_date": "2020-07-13",
        "data_arc_in_days": 15,
        "observations_used": 34,
        "orbit_uncertainty": "8",
        "minimum_orbit_intersection": ".0533695",
        "jupiter_tisserand_invariant": "5.391",
        "epoch_osculation": "2459029.5",
        "eccentricity": ".07696305031725133",
        "semi_major_axis": "1.157367214282675",
        "inclination": "17.94570712776461",
        "ascending_node_longitude": "101.9957188795547",
        "orbital_period": "454.7840137140576",
        "perihelion_distance": "1.0682927031343",
        "perihelion_argument": "192.547400487856",
        "aphelion_distance": "1.246441725431049",
        "perihelion_time": "2459046.288859123853",
        "mean_anomaly": "346.7101984627208",
        "mean_motion": ".7915845525439854",
        "equinox": "J2000",
        "orbit_class": {
            "orbit_class_type": "AMO",
            "orbit_class_description": "Near-Earth asteroid orbits similar to that of 1221 Amor",
            "orbit_class_range": "1.017 AU < q (perihelion) < 1.3 AU"
        }
    },
    "is_sentry_object": false
}